#aV2020 11 28  0  0  0.00000000     288 DD+AD WGS84 FIT  NGA
## 2133 518400.00000000   300.00000000 59181 0.0000000000000
+   32     1  2  3  4  5  6  7  8  9 10 11 12 13 14 15 16 17
+         18 19 20 21 22 23 24 25 26 27 28 29 30 31 32  0  0
+          0  0  0  0  0  0  0  0  0  0  0  0  0  0  0  0  0
+          0  0  0  0  0  0  0  0  0  0  0  0  0  0  0  0  0
+          0  0  0  0  0  0  0  0  0  0  0  0  0  0  0  0  0
++         2  2  2  2  2  2  2  2  2  2  2  2  2  2  2  2  2
++         2  2  2  2  2  2  2  2  2  2  2  2  2  2  2  0  0
++         0  0  0  0  0  0  0  0  0  0  0  0  0  0  0  0  0
++         0  0  0  0  0  0  0  0  0  0  0  0  0  0  0  0  0
++         0  0  0  0  0  0  0  0  0  0  0  0  0  0  0  0  0
%c cc cc ccc ccc cccc cccc cccc cccc ccccc ccccc ccccc ccccc
%c cc cc ccc ccc cccc cccc cccc cccc ccccc ccccc ccccc ccccc
%f  0.0000000  0.000000000  0.00000000000  0.000000000000000
%f  0.0000000  0.000000000  0.00000000000  0.000000000000000
%i    0    0    0    0      0      0      0      0         0
%i    0    0    0    0      0      0      0      0         0
/*      NGA, ST. LOUIS,MO.                                  
/*   EPHEMERIS COMPUTED FROM 2 DAYS OF DATA                 
/*   EPOCHA v5 SMOOTHER                                     
/*   G1762 IERS2010 SATAF SATAPC                            
*  2020 11 28 15 40  0.00000000
P  1 -13981.953072  19356.935528  11029.285829    802.519278                    
V  1   2404.065897 -14410.783825  28063.641844     -0.044939                    
P  2  14922.688266   1409.711801 -21276.188451   -548.083411                    
V  2  -6332.087814  27868.986779  -2529.618958     -0.045951                    
P  3 -19656.131180  13017.210204 -12217.529334    -15.880090                    
V  3 -15522.591791   1193.696682  26517.648819     -0.100231                    
P  4 -10235.505166  11399.476973 -21690.493014   -159.552892                    
V  4 -18145.350361 -20740.117342  -2381.588321     -0.034842                    
P  5  25739.251338  -1638.357314  -6893.362705    -27.021948                    
V  5  -7564.495002   4748.633048 -29864.273995     -0.009586                    
P  6   7909.805159  16850.978100 -18870.205255     -2.633983                    
V  6  -8293.275025  22598.267327  16688.743331     -0.011758                    
P  7  -5119.668985  25498.042615   4207.904229   -423.412217                    
V  7  -4785.209814   3728.916467 -31285.176207     -0.075623                    
P  8 -16834.507147   2694.227912  20451.338893     -1.005682                    
V  8 -17223.399234 -19281.536225 -11371.405495     -0.014189                    
P  9   1417.626148  19787.587514 -17714.278951   -295.067004                    
V  9 -16711.444601 -15020.839033 -18200.205667     -0.046095                    
P 10  -9253.980945 -13005.251010  21364.127866     -3.543937                    
V 10  26076.073975  -6380.897205   7185.649844     -0.090009                    
P 11 -12988.011274  12206.882161  19330.834701    -96.083570                    
V 11  -5902.096933 -24982.061990  11178.119518      0.105401                    
P 12  22280.921377 -10308.144173 -10173.635490     34.177582                    
V 12  12780.048567    237.717820  28555.720896     -0.051830                    
P 13  19297.712607   7654.795652  16497.805276     69.517163                    
V 13  10809.743072  18247.499984 -20825.352583      0.038831                    
P 14   5838.582853  14331.924201  21581.712379     46.803941                    
V 14 -26946.480736   5079.892766   3913.979775      0.139318                    
P 15  16459.584584  -5392.624997  19870.162170   -186.908982                    
V 15  18870.645770  17991.345986 -10197.950700      0.025833                    
P 16 -26031.690707  -1034.441821  -6517.776409   -242.843476                    
V 16   7564.584917  -2828.468205 -30379.007524     -0.053721                    
P 17  14511.439093  21976.552489   3969.871484    360.013013                    
V 17  -4397.432029  -2199.721268  31704.636322      0.051375                    
P 18   4509.305755 -25518.553296   5682.823334    326.794891                    
V 18   4785.650326  -6013.598911 -30815.477875      0.043286                    
P 19  17766.890297  19449.426497  -3987.820720    -72.318004                    
V 19   1161.037117   4977.554765  31627.495001      0.050138                    
P 20   3526.917620 -17018.521865  19946.272895    525.835231                    
V 20  24501.507251  -7697.874822 -11124.409051     -0.001715                    
P 21 -16032.083175  11608.723860  18267.275280     72.623134                    
V 21   3425.061963 -21685.935225  17877.788406      0.036079                    
P 22 -23934.255354  10625.900933  -3702.420878   -723.380117                    
V 22  -5908.981591  -2089.995539  30743.861185      0.056510                    
P 23   2798.156807 -15850.691977  21092.145634    105.249108                    
V 23  26221.637812  -5833.385795  -7880.057407      0.038111                    
P 24  14756.395632 -16474.265144  14192.523165      5.820815                    
V 24  -1470.452574  18813.189454  23390.416815     -0.004164                    
P 25  10788.277167 -15695.782706 -18641.132033     30.159777                    
V 25  23032.994650  -3596.389275  16839.872318      0.068093                    
P 26 -19856.124015  -6997.736950 -16378.658513      6.121699                    
V 26  19471.410560  -7237.499530 -20308.915560      0.059541                    
P 27 -20973.263353  -9305.656482  13527.872688    -23.499701                    
V 27 -10491.778778 -13799.372528 -25140.905196     -0.082274                    
P 28   9504.590578  13412.702975  21403.629982    649.874109                    
V 28 -25554.250971   3927.732128   9306.783050     -0.047863                    
P 29   1370.239002 -18530.638065 -18996.792461   -245.547587                    
V 29  15781.438321  18114.836718 -16605.883993     -0.075568                    
P 30   2038.069632  23041.953837  12905.255804   -343.378448                    
V 30  -8185.135570  14574.155529 -25033.604979     -0.064878                    
P 31  -9839.052950 -14504.376099 -19882.976055    -84.291953                    
V 31   9503.445693 -23441.653697  12898.377370     -0.023716                    
P 32 -16077.971227 -20958.834632   3594.651772      4.175621                    
V 32   5055.587997   1357.170075  31121.455955      0.029591                    
EOF
